start=new Date('2023-05-27T00:00:00.000Z').valueOf();
sats=[{"BSTAR":"0.00011740000000","MEAN_ELEMENT_THEORY":"SGP4","PERIAPSIS":"538.864","MEAN_ANOMALY":"262.5760","COUNTRY_CODE":"US","RA_OF_ASC_NODE":"61.7773","NORAD_CAT_ID":"50837","DECAY_DATE":null,"EPHEMERIS_TYPE":"0","ARG_OF_PERICENTER":"97.5374","MEAN_MOTION_DOT":"0.00001581","REF_FRAME":"TEME","SEMIMAJOR_AXIS":"6917.863","REV_AT_EPOCH":"7663","MEAN_MOTION_DDOT":"0.0000000000000","FILE":"3917630","OBJECT_ID":"2022-001AL","SITE":"AFETR","TLE_LINE1":"1 50837U 22001AL  23146.09234237  .00001581  00000-0  11740-3 0  9995","CENTER_NAME":"EARTH","LAUNCH_DATE":"2022-01-06","ELEMENT_SET_NO":"999","MEAN_MOTION":"15.08845554","PERIOD":"95.437","RCS_SIZE":"LARGE","CLASSIFICATION_TYPE":"U","EPOCH":"2023-05-26T02:12:58.380768","TIME_SYSTEM":"UTC","INCLINATION":"53.2186","TLE_LINE2":"2 50837  53.2186  61.7773 0001249  97.5374 262.5760 15.08845554 76637","OBJECT_TYPE":"PAYLOAD","ECCENTRICITY":"0.00012490","APOAPSIS":"540.592","GP_ID":"232552666","OBJECT_NAME":"STARLINK-3318"},{"MEAN_ANOMALY":"256.9475","EPHEMERIS_TYPE":"0","DECAY_DATE":null,"NORAD_CAT_ID":"50838","COUNTRY_CODE":"US","RA_OF_ASC_NODE":"63.5558","MEAN_ELEMENT_THEORY":"SGP4","BSTAR":"0.00005233700000","PERIAPSIS":"538.875","MEAN_MOTION_DDOT":"0.0000000000000","FILE":"3917850","MEAN_MOTION_DOT":"0.00000545","ARG_OF_PERICENTER":"103.1660","SEMIMAJOR_AXIS":"6917.890","REF_FRAME":"TEME","REV_AT_EPOCH":"7668","MEAN_MOTION":"15.08836788","PERIOD":"95.438","CLASSIFICATION_TYPE":"U","RCS_SIZE":"LARGE","SITE":"AFETR","OBJECT_ID":"2022-001AM","TLE_LINE1":"1 50838U 22001AM  23146.93010930  .00000545  00000-0  52337-4 0  9998","CENTER_NAME":"EARTH","ELEMENT_SET_NO":"999","LAUNCH_DATE":"2022-01-06","TLE_LINE2":"2 50838  53.2195  63.5558 0001273 103.1660 256.9475 15.08836788 76682","OBJECT_TYPE":"PAYLOAD","ECCENTRICITY":"0.00012730","GP_ID":"232585566","APOAPSIS":"540.636","OBJECT_NAME":"STARLINK-3322","EPOCH":"2023-05-26T22:19:21.443520","TIME_SYSTEM":"UTC","INCLINATION":"53.2195"},{"CENTER_NAME":"EARTH","ELEMENT_SET_NO":"999","LAUNCH_DATE":"2022-01-06","SITE":"AFETR","OBJECT_ID":"2022-001AN","TLE_LINE1":"1 50839U 22001AN  23146.17606868  .00000262  00000-0  34550-4 0  9999","PERIOD":"95.438","CLASSIFICATION_TYPE":"U","RCS_SIZE":"LARGE","MEAN_MOTION":"15.08838315","INCLINATION":"53.2172","EPOCH":"2023-05-26T04:13:32.333952","TIME_SYSTEM":"UTC","ECCENTRICITY":"0.00011890","GP_ID":"232554167","APOAPSIS":"540.573","OBJECT_NAME":"STARLINK-3320","TLE_LINE2":"2 50839  53.2172  71.4022 0001189  89.4764 270.6364 15.08838315 76496","OBJECT_TYPE":"PAYLOAD","PERIAPSIS":"538.928","MEAN_ELEMENT_THEORY":"SGP4","BSTAR":"0.00003455000000","DECAY_DATE":null,"NORAD_CAT_ID":"50839","EPHEMERIS_TYPE":"0","COUNTRY_CODE":"US","RA_OF_ASC_NODE":"71.4022","MEAN_ANOMALY":"270.6364","SEMIMAJOR_AXIS":"6917.886","REF_FRAME":"TEME","REV_AT_EPOCH":"7649","MEAN_MOTION_DOT":"0.00000262","ARG_OF_PERICENTER":"89.4764","FILE":"3917630","MEAN_MOTION_DDOT":"0.0000000000000"},{"PERIAPSIS":"538.769","MEAN_ELEMENT_THEORY":"SGP4","BSTAR":"0.00000168250000","EPHEMERIS_TYPE":"0","DECAY_DATE":null,"NORAD_CAT_ID":"50840","RA_OF_ASC_NODE":"71.7170","COUNTRY_CODE":"US","MEAN_ANOMALY":"263.3661","SEMIMAJOR_AXIS":"6917.871","REF_FRAME":"TEME","REV_AT_EPOCH":"7648","MEAN_MOTION_DOT":"-0.00000261","ARG_OF_PERICENTER":"96.7490","FILE":"3917630","MEAN_MOTION_DDOT":"0.0000000000000","CENTER_NAME":"EARTH","ELEMENT_SET_NO":"999","LAUNCH_DATE":"2022-01-06","SITE":"AFETR","OBJECT_ID":"2022-001AP","TLE_LINE1":"1 50840U 22001AP  23146.10614612 -.00000261  00000-0  16825-5 0  9996","PERIOD":"95.437","CLASSIFICATION_TYPE":"U","RCS_SIZE":"LARGE","MEAN_MOTION":"15.08842910","INCLINATION":"53.2173","EPOCH":"2023-05-26T02:32:51.024768","TIME_SYSTEM":"UTC","ECCENTRICITY":"0.00013980","OBJECT_NAME":"STARLINK-3295","GP_ID":"232553918","APOAPSIS":"540.704","TLE_LINE2":"2 50840  53.2173  71.7170 0001398  96.7490 263.3661 15.08842910 76489","OBJECT_TYPE":"PAYLOAD"},{"BSTAR":"0.00001180800000","MEAN_ELEMENT_THEORY":"SGP4","PERIAPSIS":"538.861","MEAN_ANOMALY":"242.5264","COUNTRY_CODE":"US","RA_OF_ASC_NODE":"68.6897","DECAY_DATE":null,"NORAD_CAT_ID":"50841","EPHEMERIS_TYPE":"0","ARG_OF_PERICENTER":"117.5860","MEAN_MOTION_DOT":"-0.00000100","REV_AT_EPOCH":"7659","REF_FRAME":"TEME","SEMIMAJOR_AXIS":"6917.889","MEAN_MOTION_DDOT":"0.0000000000000","FILE":"3917850","TLE_LINE1":"1 50841U 22001AQ  23146.77959006 -.00000100  00000-0  11808-4 0  9996","OBJECT_ID":"2022-001AQ","SITE":"AFETR","LAUNCH_DATE":"2022-01-06","ELEMENT_SET_NO":"999","CENTER_NAME":"EARTH","MEAN_MOTION":"15.08837256","RCS_SIZE":"LARGE","CLASSIFICATION_TYPE":"U","PERIOD":"95.438","TIME_SYSTEM":"UTC","EPOCH":"2023-05-26T18:42:36.581184","INCLINATION":"53.2171","OBJECT_TYPE":"PAYLOAD","TLE_LINE2":"2 50841  53.2171  68.6897 0001291 117.5860 242.5264 15.08837256 76591","OBJECT_NAME":"STARLINK-3300","GP_ID":"232584815","APOAPSIS":"540.647","ECCENTRICITY":"0.00012910"},{"EPOCH":"2023-05-26T02:27:33.238656","TIME_SYSTEM":"UTC","INCLINATION":"53.2174","TLE_LINE2":"2 50842  53.2174  71.7346 0001123  75.1129 284.9987 15.08834377 76481","OBJECT_TYPE":"PAYLOAD","ECCENTRICITY":"0.00011230","GP_ID":"232553416","APOAPSIS":"540.539","OBJECT_NAME":"STARLINK-3302","SITE":"AFETR","OBJECT_ID":"2022-001AR","TLE_LINE1":"1 50842U 22001AR  23146.10246804  .00000728  00000-0  63822-4 0  9997","CENTER_NAME":"EARTH","ELEMENT_SET_NO":"999","LAUNCH_DATE":"2022-01-06","MEAN_MOTION":"15.08834377","PERIOD":"95.438","CLASSIFICATION_TYPE":"U","RCS_SIZE":"LARGE","MEAN_MOTION_DOT":"0.00000728","ARG_OF_PERICENTER":"75.1129","SEMIMAJOR_AXIS":"6917.898","REF_FRAME":"TEME","REV_AT_EPOCH":"7648","MEAN_MOTION_DDOT":"0.0000000000000","FILE":"3917630","MEAN_ELEMENT_THEORY":"SGP4","BSTAR":"0.00006382200000","PERIAPSIS":"538.986","MEAN_ANOMALY":"284.9987","DECAY_DATE":null,"EPHEMERIS_TYPE":"0","NORAD_CAT_ID":"50842","RA_OF_ASC_NODE":"71.7346","COUNTRY_CODE":"US"},{"MEAN_MOTION":"15.08836100","PERIOD":"95.438","RCS_SIZE":"LARGE","CLASSIFICATION_TYPE":"U","OBJECT_ID":"2022-001AS","SITE":"AFETR","TLE_LINE1":"1 50843U 22001AS  23146.91943010 -.00000244  00000-0  27343-5 0  9993","CENTER_NAME":"EARTH","ELEMENT_SET_NO":"999","LAUNCH_DATE":"2022-01-06","TLE_LINE2":"2 50843  53.2189  68.0625 0000999  92.6972 267.4135 15.08836100 76619","OBJECT_TYPE":"PAYLOAD","ECCENTRICITY":"0.00009990","APOAPSIS":"540.448","GP_ID":"232585817","OBJECT_NAME":"STARLINK-3325","EPOCH":"2023-05-26T22:03:58.760640","TIME_SYSTEM":"UTC","INCLINATION":"53.2189","MEAN_ANOMALY":"267.4135","COUNTRY_CODE":"US","RA_OF_ASC_NODE":"68.0625","DECAY_DATE":null,"NORAD_CAT_ID":"50843","EPHEMERIS_TYPE":"0","BSTAR":"0.00000273430000","MEAN_ELEMENT_THEORY":"SGP4","PERIAPSIS":"539.066","MEAN_MOTION_DDOT":"0.0000000000000","FILE":"3917850","ARG_OF_PERICENTER":"92.6972","MEAN_MOTION_DOT":"-0.00000244","REF_FRAME":"TEME","SEMIMAJOR_AXIS":"6917.892","REV_AT_EPOCH":"7661"},{"PERIAPSIS":"538.930","MEAN_ELEMENT_THEORY":"SGP4","BSTAR":"0.00005552500000","NORAD_CAT_ID":"50844","DECAY_DATE":null,"EPHEMERIS_TYPE":"0","RA_OF_ASC_NODE":"71.4900","COUNTRY_CODE":"US","MEAN_ANOMALY":"266.6575","SEMIMAJOR_AXIS":"6917.868","REF_FRAME":"TEME","REV_AT_EPOCH":"7650","MEAN_MOTION_DOT":"0.00000596","ARG_OF_PERICENTER":"93.4549","FILE":"3917630","MEAN_MOTION_DDOT":"0.0000000000000","CENTER_NAME":"EARTH","LAUNCH_DATE":"2022-01-06","ELEMENT_SET_NO":"999","SITE":"AFETR","OBJECT_ID":"2022-001AT","TLE_LINE1":"1 50844U 22001AT  23146.15766409  .00000596  00000-0  55525-4 0  9996","PERIOD":"95.437","CLASSIFICATION_TYPE":"U","RCS_SIZE":"LARGE","MEAN_MOTION":"15.08844204","INCLINATION":"53.2179","EPOCH":"2023-05-26T03:47:02.177376","TIME_SYSTEM":"UTC","ECCENTRICITY":"0.00011600","APOAPSIS":"540.535","GP_ID":"232554418","OBJECT_NAME":"STARLINK-3326","TLE_LINE2":"2 50844  53.2179  71.4900 0001160  93.4549 266.6575 15.08844204 76504","OBJECT_TYPE":"PAYLOAD"},{"TLE_LINE2":"2 50845  53.2176  68.0119 0001227 111.7387 248.3736 15.08837903 76621","OBJECT_TYPE":"PAYLOAD","ECCENTRICITY":"0.00012270","APOAPSIS":"540.601","GP_ID":"232585316","OBJECT_NAME":"STARLINK-3230","EPOCH":"2023-05-26T22:19:52.131072","TIME_SYSTEM":"UTC","INCLINATION":"53.2176","MEAN_MOTION":"15.08837903","PERIOD":"95.438","RCS_SIZE":"LARGE","CLASSIFICATION_TYPE":"U","OBJECT_ID":"2022-001AU","SITE":"AFETR","TLE_LINE1":"1 50845U 22001AU  23146.93046448  .00000537  00000-0  51820-4 0  9996","CENTER_NAME":"EARTH","LAUNCH_DATE":"2022-01-06","ELEMENT_SET_NO":"999","MEAN_MOTION_DDOT":"0.0000000000000","FILE":"3917850","ARG_OF_PERICENTER":"111.7387","MEAN_MOTION_DOT":"0.00000537","REF_FRAME":"TEME","SEMIMAJOR_AXIS":"6917.887","REV_AT_EPOCH":"7662","MEAN_ANOMALY":"248.3736","RA_OF_ASC_NODE":"68.0119","COUNTRY_CODE":"US","DECAY_DATE":null,"NORAD_CAT_ID":"50845","EPHEMERIS_TYPE":"0","BSTAR":"0.00005182000000","MEAN_ELEMENT_THEORY":"SGP4","PERIAPSIS":"538.903"},{"GP_ID":"232552917","OBJECT_NAME":"STARLINK-3308","APOAPSIS":"540.588","ECCENTRICITY":"0.00012020","OBJECT_TYPE":"PAYLOAD","TLE_LINE2":"2 50846  53.2177  72.1637 0001202  92.2873 267.8257 15.08836432 76484","INCLINATION":"53.2177","TIME_SYSTEM":"UTC","EPOCH":"2023-05-26T00:46:53.303232","CLASSIFICATION_TYPE":"U","RCS_SIZE":"LARGE","PERIOD":"95.438","MEAN_MOTION":"15.08836432","LAUNCH_DATE":"2022-01-06","ELEMENT_SET_NO":"999","CENTER_NAME":"EARTH","TLE_LINE1":"1 50846U 22001AV  23146.03256138  .00001500  00000-0  11231-3 0  9999","SITE":"AFETR","OBJECT_ID":"2022-001AV","FILE":"3917630","MEAN_MOTION_DDOT":"0.0000000000000","REV_AT_EPOCH":"7648","SEMIMAJOR_AXIS":"6917.891","REF_FRAME":"TEME","MEAN_MOTION_DOT":"0.00001500","ARG_OF_PERICENTER":"92.2873","NORAD_CAT_ID":"50846","DECAY_DATE":null,"EPHEMERIS_TYPE":"0","COUNTRY_CODE":"US","RA_OF_ASC_NODE":"72.1637","MEAN_ANOMALY":"267.8257","PERIAPSIS":"538.925","MEAN_ELEMENT_THEORY":"SGP4","BSTAR":"0.00011231000000"}];
